{"type": "FeatureCollection", "features": [ {"type": "Feature", "properties": {"norad_id": 30703, "name": "FENGYUN 1C DEB", "group": "fengyun-1c-debris", "lat": -58.49647724157598, "lon": -6.6453545088448305, "alt_km": 758.271428654014, "timestamp": "2025-12-18T21:31:51.279916+00:00", "meta": {"OBJECT_NAME": "FENGYUN 1C DEB", "OBJECT_ID": "1999-025ARM", "EPOCH": "2025-12-18T05:12:05.281920", "MEAN_MOTION": 14.19351912, "ECCENTRICITY": 0.01173359, "INCLINATION": 99.142, "RA_OF_ASC_NODE": 337.4201, "ARG_OF_PERICENTER": 276.489, "MEAN_ANOMALY": 148.6187, "EPHEMERIS_TYPE": 0, "CLASSIFICATION_TYPE": "U", "NORAD_CAT_ID": 30703, "ELEMENT_SET_NO": 999, "REV_AT_EPOCH": 96618, "BSTAR": 0.00086399706, "MEAN_MOTION_DOT": 1.896e-05, "MEAN_MOTION_DDOT": 0}, "tle": {"line1": "1 30703U 99025ARM 25352.21672780  .00001896  00000+0  86400-3 0  9992", "line2": "2 30703  99.1420 337.4201 0117335 276.4890 148.6187 14.19351912966187"}}, "geometry": {"type": "Point", "coordinates": [-6.6453545088448305, -58.49647724157598]}}, {"type": "Feature", "properties": {"norad_id": 30704, "name": "FENGYUN 1C DEB", "group": "fengyun-1c-debris", "lat": -39.71892588987913, "lon": 164.01564259084037, "alt_km": 936.6189315256361, "timestamp": "2025-12-18T21:31:51.279926+00:00", "meta": {"OBJECT_NAME": "FENGYUN 1C DEB", "OBJECT_ID": "1999-025ARN", "EPOCH": "2025-12-17T22:30:07.351776", "MEAN_MOTION": 14.02055826, "ECCENTRICITY": 0.00817937, "INCLINATION": 98.8729, "RA_OF_ASC_NODE": 350.5384, "ARG_OF_PERICENTER": 85.4968, "MEAN_ANOMALY": 333.574, "EPHEMERIS_TYPE": 0, "CLASSIFICATION_TYPE": "U", "NORAD_CAT_ID": 30704, "ELEMENT_SET_NO": 999, "REV_AT_EPOCH": 96184, "BSTAR": 0.00043143382, "MEAN_MOTION_DOT": 6.36e-06, "MEAN_MOTION_DDOT": 0}, "tle": {"line1": "1 30704U 99025ARN 25351.93758509  .00000636  00000+0  43143-3 0  9993", "line2": "2 30704  98.8729 350.5384 0081793  85.4968 333.5740 14.02055826961841"}}, "geometry": {"type": "Point", "coordinates": [164.01564259084037, -39.71892588987913]}}, {"type": "Feature", "properties": {"norad_id": 30705, "name": "FENGYUN 1C DEB", "group": "fengyun-1c-debris", "lat": 3.7972418222026074, "lon": -80.33718331296289, "alt_km": 962.4651425130342, "timestamp": "2025-12-18T21:31:51.279937+00:00", "meta": {"OBJECT_NAME": "FENGYUN 1C DEB", "OBJECT_ID": "1999-025ARP", "EPOCH": "2025-12-18T03:51:52.082208", "MEAN_MOTION": 13.8135002, "ECCENTRICITY": 0.02005863, "INCLINATION": 102.1805, "RA_OF_ASC_NODE": 97.8942, "ARG_OF_PERICENTER": 269.3462, "MEAN_ANOMALY": 210.1656, "EPHEMERIS_TYPE": 0, "CLASSIFICATION_TYPE": "U", "NORAD_CAT_ID": 30705, "ELEMENT_SET_NO": 999, "REV_AT_EPOCH": 94084, "BSTAR": 0.0020047795, "MEAN_MOTION_DOT": 2.414e-05, "MEAN_MOTION_DDOT": 0}, "tle": {"line1": "1 30705U 99025ARP 25352.16101947  .00002414  00000+0  20048-2 0  9992", "line2": "2 30705 102.1805  97.8942 0200586 269.3462 210.1656 13.81350020940845"}}, "geometry": {"type": "Point", "coordinates": [-80.33718331296289, 3.7972418222026074]}}, {"type": "Feature", "properties": {"norad_id": 30706, "name": "FENGYUN 1C DEB", "group": "fengyun-1c-debris", "lat": 32.29240327860882, "lon": -118.07052268291667, "alt_km": 797.5337226804622, "timestamp": "2025-12-18T21:31:51.279947+00:00", "meta": {"OBJECT_NAME": "FENGYUN 1C DEB", "OBJECT_ID": "1999-025ARQ", "EPOCH": "2025-12-18T04:32:36.000384", "MEAN_MOTION": 14.26446156, "ECCENTRICITY": 0.00268538, "INCLINATION": 99.0659, "RA_OF_ASC_NODE": 246.9884, "ARG_OF_PERICENTER": 112.6571, "MEAN_ANOMALY": 247.7451, "EPHEMERIS_TYPE": 0, "CLASSIFICATION_TYPE": "U", "NORAD_CAT_ID": 30706, "ELEMENT_SET_NO": 999, "REV_AT_EPOCH": 97705, "BSTAR": 0.00070981465, "MEAN_MOTION_DOT": 1.668e-05, "MEAN_MOTION_DDOT": 0}, "tle": {"line1": "1 30706U 99025ARQ 25352.18930556  .00001668  00000+0  70981-3 0  9993", "line2": "2 30706  99.0659 246.9884 0026853 112.6571 247.7451 14.26446156977051"}}, "geometry": {"type": "Point", "coordinates": [-118.07052268291667, 32.29240327860882]}}, {"type": "Feature", "properties": {"norad_id": 30707, "name": "FENGYUN 1C DEB", "group": "fengyun-1c-debris", "lat": -80.57816157949989, "lon": 136.19994142214927, "alt_km": 825.4865988915153, "timestamp": "2025-12-18T21:31:51.279957+00:00", "meta": {"OBJECT_NAME": "FENGYUN 1C DEB", "OBJECT_ID": "1999-025ARR", "EPOCH": "2025-12-18T03:33:39.157632", "MEAN_MOTION": 14.2672262, "ECCENTRICITY": 0.00274019, "INCLINATION": 99.4126, "RA_OF_ASC_NODE": 46.9284, "ARG_OF_PERICENTER": 54.3982, "MEAN_ANOMALY": 332.4368, "EPHEMERIS_TYPE": 0, "CLASSIFICATION_TYPE": "U", "NORAD_CAT_ID": 30707, "ELEMENT_SET_NO": 999, "REV_AT_EPOCH": 96880, "BSTAR": 0.0011857673, "MEAN_MOTION_DOT": 2.832e-05, "MEAN_MOTION_DDOT": 0}, "tle": {"line1": "1 30707U 99025ARR 25352.14836988  .00002832  00000+0  11858-2 0  9995", "line2": "2 30707  99.4126  46.9284 0027401  54.3982 332.4368 14.26722620968800"}}, "geometry": {"type": "Point", "coordinates": [136.19994142214927, -80.57816157949989]}}, {"type": "Feature", "properties": {"norad_id": 30708, "name": "FENGYUN 1C DEB", "group": "fengyun-1c-debris", "lat": 11.43264351047899, "lon": 4.572720685419289, "alt_km": 859.0218097950838, "timestamp": "2025-12-18T21:31:51.279967+00:00", "meta": {"OBJECT_NAME": "FENGYUN 1C DEB", "OBJECT_ID": "1999-025ARS", "EPOCH": "2025-12-17T23:30:49.763232", "MEAN_MOTION": 14.12182163, "ECCENTRICITY": 0.00083093, "INCLINATION": 98.69, "RA_OF_ASC_NODE": 5.4559, "ARG_OF_PERICENTER": 179.4377, "MEAN_ANOMALY": 211.055, "EPHEMERIS_TYPE": 0, "CLASSIFICATION_TYPE": "U", "NORAD_CAT_ID": 30708, "ELEMENT_SET_NO": 999, "REV_AT_EPOCH": 96910, "BSTAR": 0.00015861719, "MEAN_MOTION_DOT": 2.49e-06, "MEAN_MOTION_DDOT": 0}, "tle": {"line1": "1 30708U 99025ARS 25351.97974263  .00000249  00000+0  15862-3 0  9995", "line2": "2 30708  98.6900   5.4559 0008309 179.4377 211.0550 14.12182163969106"}}, "geometry": {"type": "Point", "coordinates": [4.572720685419289, 11.43264351047899]}}, {"type": "Feature", "properties": {"norad_id": 30709, "name": "FENGYUN 1C DEB", "group": "fengyun-1c-debris", "lat": 22.723262447422634, "lon": 154.8994731084555, "alt_km": 838.7023432181577, "timestamp": "2025-12-18T21:31:51.279978+00:00", "meta": {"OBJECT_NAME": "FENGYUN 1C DEB", "OBJECT_ID": "1999-025ART", "EPOCH": "2025-12-18T05:32:18.553920", "MEAN_MOTION": 14.17533714, "ECCENTRICITY": 0.00820911, "INCLINATION": 99.1438, "RA_OF_ASC_NODE": 330.3465, "ARG_OF_PERICENTER": 254.5123, "MEAN_ANOMALY": 104.6974, "EPHEMERIS_TYPE": 0, "CLASSIFICATION_TYPE": "U", "NORAD_CAT_ID": 30709, "ELEMENT_SET_NO": 999, "REV_AT_EPOCH": 96074, "BSTAR": 0.0021125422, "MEAN_MOTION_DOT": 4.387e-05, "MEAN_MOTION_DDOT": 0}, "tle": {"line1": "1 30709U 99025ART 25352.23077030  .00004387  00000+0  21125-2 0  9997", "line2": "2 30709  99.1438 330.3465 0082091 254.5123 104.6974 14.17533714960744"}}, "geometry": {"type": "Point", "coordinates": [154.8994731084555, 22.723262447422634]}}, {"type": "Feature", "properties": {"norad_id": 30710, "name": "FENGYUN 1C DEB", "group": "fengyun-1c-debris", "lat": -56.312040037068435, "lon": 44.56550520544043, "alt_km": 1081.7328012761363, "timestamp": "2025-12-18T21:31:51.279988+00:00", "meta": {"OBJECT_NAME": "FENGYUN 1C DEB", "OBJECT_ID": "1999-025ARU", "EPOCH": "2025-12-17T22:20:02.174208", "MEAN_MOTION": 13.94187239, "ECCENTRICITY": 0.02242897, "INCLINATION": 102.747, "RA_OF_ASC_NODE": 243.0869, "ARG_OF_PERICENTER": 70.9194, "MEAN_ANOMALY": 358.2402, "EPHEMERIS_TYPE": 0, "CLASSIFICATION_TYPE": "U", "NORAD_CAT_ID": 30710, "ELEMENT_SET_NO": 999, "REV_AT_EPOCH": 94861, "BSTAR": 0.0023246232, "MEAN_MOTION_DOT": 3.73e-05, "MEAN_MOTION_DDOT": 0}, "tle": {"line1": "1 30710U 99025ARU 25351.93058072  .00003730  00000+0  23246-2 0  9997", "line2": "2 30710 102.7470 243.0869 0224289  70.9194 358.2402 13.94187239948612"}}, "geometry": {"type": "Point", "coordinates": [44.56550520544043, -56.312040037068435]}}, {"type": "Feature", "properties": {"norad_id": 30714, "name": "FENGYUN 1C DEB", "group": "fengyun-1c-debris", "lat": 62.59968990089606, "lon": 23.781567200459907, "alt_km": 921.3607989939555, "timestamp": "2025-12-18T21:31:51.279999+00:00", "meta": {"OBJECT_NAME": "FENGYUN 1C DEB", "OBJECT_ID": "1999-025ARY", "EPOCH": "2025-12-18T02:32:26.409408", "MEAN_MOTION": 14.03299254, "ECCENTRICITY": 0.00666994, "INCLINATION": 98.8362, "RA_OF_ASC_NODE": 40.476, "ARG_OF_PERICENTER": 267.4247, "MEAN_ANOMALY": 121.1631, "EPHEMERIS_TYPE": 0, "CLASSIFICATION_TYPE": "U", "NORAD_CAT_ID": 30714, "ELEMENT_SET_NO": 999, "REV_AT_EPOCH": 96068, "BSTAR": 0.00034801734, "MEAN_MOTION_DOT": 5.11e-06, "MEAN_MOTION_DDOT": 0}, "tle": {"line1": "1 30714U 99025ARY 25352.10586122  .00000511  00000+0  34802-3 0  9998", "line2": "2 30714  98.8362  40.4760 0066699 267.4247 121.1631 14.03299254960685"}}, "geometry": {"type": "Point", "coordinates": [23.781567200459907, 62.59968990089606]}}, {"type": "Feature", "properties": {"norad_id": 30715, "name": "FENGYUN 1C DEB", "group": "fengyun-1c-debris", "lat": -0.5721243541206641, "lon": -117.99706195187882, "alt_km": 803.4799696106129, "timestamp": "2025-12-18T21:31:51.280009+00:00", "meta": {"OBJECT_NAME": "FENGYUN 1C DEB", "OBJECT_ID": "1999-025ARZ", "EPOCH": "2025-12-18T03:42:36.976896", "MEAN_MOTION": 14.14731182, "ECCENTRICITY": 0.00676946, "INCLINATION": 98.9768, "RA_OF_ASC_NODE": 61.3469, "ARG_OF_PERICENTER": 153.2385, "MEAN_ANOMALY": 207.2306, "EPHEMERIS_TYPE": 0, "CLASSIFICATION_TYPE": "U", "NORAD_CAT_ID": 30715, "ELEMENT_SET_NO": 999, "REV_AT_EPOCH": 96258, "BSTAR": 0.00141254, "MEAN_MOTION_DOT": 2.737e-05, "MEAN_MOTION_DDOT": 0}, "tle": {"line1": "1 30715U 99025ARZ 25352.15459464  .00002737  00000+0  14125-2 0  9999", "line2": "2 30715  98.9768  61.3469 0067694 153.2385 207.2306 14.14731182962585"}}, "geometry": {"type": "Point", "coordinates": [-117.99706195187882, -0.5721243541206641]}}]}